NORAD_CAT_ID,OBJECT_NAME,OBJECT_TYPE,EPOCH,MEAN_MOTION,ECCENTRICITY,INCLINATION,RA_OF_ASC_NODE,ARG_OF_PERICENTER,MEAN_ANOMALY,BSTAR,MEAN_MOTION_DOT,MEAN_MOTION_DDOT,TLE_LINE0,TLE_LINE1,TLE_LINE2,SEMIMAJOR_AXIS,PERIOD,APOGEE,PERIGEE,DECAYED
53555.0,STARLINK-4504,PAYLOAD,2022-09-02 04:00:00,15.73188519,0.0001103,53.2156,88.5261,54.0366,280.1067,6.9532e-05,9.144e-05,0.0,0 STARLINK-4504,1 53555U 22101AE  22245.16667824  .00009144  00000-0  69532-4 0  9991,2 53555  53.2156  88.5261 0001103  54.0366 280.1067 15.73188519  2123,6727.928000000001,91.534,350.535,349.051,0.0
53555.0,STARLINK-4504,PAYLOAD,2022-09-02 14:00:01,15.73211726,0.0001059,53.216,86.4629,66.4474,108.8448,0.00030375,0.00042245,0.0,0 STARLINK-4504,1 53555U 22101AE  22245.58334491  .00042245  00000-0  30375-3 0  9999,2 53555  53.2160  86.4629 0001059  66.4474 108.8448 15.73211726  1305,6727.861999999999,91.532,350.439,349.014,0.0
53555.0,STARLINK-4504,PAYLOAD,2022-09-02 20:00:01,15.7323151,0.0001204,53.2155,85.2274,55.0063,97.0041,0.00012831,0.00017449,0.0,0 STARLINK-4504,1 53555U 22101AE  22245.83334491  .00017449  00000-0  12831-3 0  9992,2 53555  53.2155  85.2274 0001204  55.0063  97.0041 15.73231510  2236,6727.805,91.531,350.48,348.86,0.0
53555.0,STARLINK-4504,PAYLOAD,2022-09-02 22:00:01,15.73222238,0.0001266,53.2157,84.8154,54.0849,210.2359,0.00035542,0.00049603,0.0,0 STARLINK-4504,1 53555U 22101AE  22245.91668981  .00049603  00000-0  35542-3 0  9996,2 53555  53.2157  84.8154 0001266  54.0849 210.2359 15.73222238  1304,6727.831999999999,91.532,350.5490000000001,348.845,0.0
53555.0,STARLINK-4504,PAYLOAD,2022-09-03 14:00:01,15.73271021,0.0001182,53.2157,81.5143,67.5659,14.6626,-0.00016737,-0.00024113,0.0,0 STARLINK-4504,1 53555U 22101AE  22246.58334491 -.00024113  00000-0 -16737-3 0  9992,2 53555  53.2157  81.5143 0001182  67.5659  14.6626 15.73271021  1308,6727.693,91.529,350.353,348.76199999999994,0.0
53555.0,STARLINK-4504,PAYLOAD,2022-09-03 20:00:01,15.73247419,0.0001198,53.2157,80.2788,54.9756,4.0128,-0.00019978,-0.00028619,0.0,0 STARLINK-4504,1 53555U 22101AE  22246.83334491 -.00028619  00000-0 -19978-3 0  9995,2 53555  53.2157  80.2788 0001198  54.9756   4.0128 15.73247419  2398,6727.76,91.53,350.431,348.819,0.0
53555.0,STARLINK-4504,PAYLOAD,2022-09-03 22:00:00,15.73223919,0.0001229,53.216,79.8667,51.5317,119.7087,8.0055e-05,0.00010641,0.0,0 STARLINK-4504,1 53555U 22101AE  22246.91667824  .00010641  00000-0  80055-4 0  9992,2 53555  53.2160  79.8667 0001229  51.5317 119.7087 15.73223919  1300,6727.8269999999975,91.532,350.519,348.865,0.0
53555.0,STARLINK-4504,PAYLOAD,2022-09-04 14:00:01,15.7324062,0.0001313,53.2161,76.5657,63.5166,285.6904,-0.00053018,-0.000745,0.0,0 STARLINK-4504,1 53555U 22101AE  22247.58335648 -.00074500  00000-0 -53018-3 0  9996,2 53555  53.2161  76.5657 0001313  63.5166 285.6904 15.73240620  1302,6727.779,91.531,350.528,348.761,0.0
53555.0,STARLINK-4504,PAYLOAD,2022-09-04 16:00:00,15.73255188,0.0001341,53.2159,76.154,59.4118,41.9866,-0.00058905,-0.00082676,0.0,0 STARLINK-4504,1 53555U 22101AE  22247.66667824 -.00082676  00000-0 -58905-3 0  9992,2 53555  53.2159  76.1540 0001341  59.4118  41.9866 15.73255188  2528,6727.738,91.53,350.505,348.701,0.0
53555.0,STARLINK-4504,PAYLOAD,2022-09-04 20:00:01,15.73219714,0.0001409,53.2157,75.3302,54.7771,271.1099,-0.00036642,-0.00051773,0.0,0 STARLINK-4504,1 53555U 22101AE  22247.83334491 -.00051773  00000-0 -36642-3 0  9990,2 53555  53.2157  75.3302 0001409  54.7771 271.1099 15.73219714  1306,6727.839,91.532,350.652,348.756,0.0
53555.0,STARLINK-4504,PAYLOAD,2022-09-05 12:00:00,15.73169611,0.0001012,53.2155,72.0294,55.4198,88.2614,0.00040911,0.00057112,0.0,0 STARLINK-4504,1 53555U 22101AE  22248.50001157  .00057112  00000-0  40911-3 0  9990,2 53555  53.2155  72.0294 0001012  55.4198  88.2614 15.73169611  2658,6727.982,91.535,350.528,349.166,0.0
53555.0,STARLINK-4504,PAYLOAD,2022-09-05 14:00:01,15.73190591,0.0001020999999999,53.2156,71.6175,52.4918,203.412,0.00016571,0.0002269,0.0,0 STARLINK-4504,1 53555U 22101AE  22248.58334491  .00022690  00000-0  16571-3 0  9996,2 53555  53.2156  71.6175 0001021  52.4918 203.4120 15.73190591  1304,6727.922,91.534,350.474,349.1,0.0
53555.0,STARLINK-4504,PAYLOAD,2022-09-05 20:00:01,15.73175482,0.000133,53.2156,70.3821,46.4395,186.1354,-0.00019408,-0.00027739,0.0,0 STARLINK-4504,1 53555U 22101AE  22248.83334491 -.00027739  00000-0 -19408-3 0  9997,2 53555  53.2156  70.3821 0001330  46.4395 186.1354 15.73175482  2706,6727.965,91.535,350.725,348.935,0.0
53555.0,STARLINK-4504,PAYLOAD,2022-09-06 14:00:01,15.73162555,0.0001465999999999,53.2158,66.6694,58.0701,104.4763,0.00026664,0.00036906,0.0,0 STARLINK-4504,1 53555U 22101AE  22249.58334491  .00036906  00000-0  26664-3 0  9996,2 53555  53.2158  66.6694 0001466  58.0701 104.4763 15.73162555  1303,6728.002,91.535,350.853,348.881,0.0
53555.0,STARLINK-4504,PAYLOAD,2022-09-06 22:00:00,15.73184688,0.0001553,53.2153,65.0216,46.9298,204.5187,0.00032275,0.00044889,0.0,0 STARLINK-4504,1 53555U 22101AE  22249.91667824  .00044889  00000-0  32275-3 0  9996,2 53555  53.2153  65.0216 0001553  46.9298 204.5187 15.73184688  1308,6727.939,91.534,350.849,348.759,0.0
53555.0,STARLINK-4504,PAYLOAD,2022-09-07 04:00:00,15.73222129,0.0001367,53.2149,63.783,47.2857,180.8567,-0.0003498999999999,-0.00049485,0.0,0 STARLINK-4504,1 53555U 22101AE  22250.16667824 -.00049485  00000-0 -34990-3 0  9990,2 53555  53.2149  63.7830 0001367  47.2857 180.8567 15.73222129  2917,6727.831999999999,91.532,350.617,348.777,0.0
53555.0,STARLINK-4504,PAYLOAD,2022-09-07 12:00:00,15.73203744,0.0001217,53.2152,62.1326,50.9682,266.1043,0.00052434,0.00073627,0.0,0 STARLINK-4504,1 53555U 22101AE  22250.50001157  .00073627  00000-0  52434-3 0  9995,2 53555  53.2152  62.1326 0001217  50.9682 266.1043 15.73203744  2969,6727.884,91.533,350.5680000000001,348.931,0.0
53555.0,STARLINK-4504,PAYLOAD,2022-09-07 14:00:01,15.73234197,0.0001274999999999,53.2152,61.7208,48.9074,20.3953,0.00020568,0.00028385,0.0,0 STARLINK-4504,1 53555U 22101AE  22250.58334491  .00028385  00000-0  20568-3 0  9997,2 53555  53.2152  61.7208 0001275  48.9074  20.3953 15.73234197  1302,6727.7980000000025,91.531,350.52,348.805,0.0
53555.0,STARLINK-4504,PAYLOAD,2022-09-07 22:00:00,15.7322176,0.0001493,53.2153,60.0727,40.635,117.6276,9.9672e-05,0.00013403,0.0,0 STARLINK-4504,1 53555U 22101AE  22250.91667824  .00013403  00000-0  99672-4 0  9991,2 53555  53.2153  60.0727 0001493  40.6350 117.6276 15.73221760  3031,6727.833000000001,91.532,350.70300000000015,348.694,0.0
53555.0,STARLINK-4504,PAYLOAD,2022-09-08 14:00:01,15.73218837,0.0001404,53.2155,56.7718,42.838,293.3161,0.00013291,0.00018088,0.0,0 STARLINK-4504,1 53555U 22101AE  22251.58334491  .00018088  00000-0  13291-3 0  9992,2 53555  53.2155  56.7718 0001404  42.8380 293.3161 15.73218837  1308,6727.840999999999,91.532,350.651,348.76199999999994,0.0
53555.0,STARLINK-4504,PAYLOAD,2022-09-08 22:00:00,15.73229689,0.0001636999999999,53.215,55.1235,37.8531,27.2661,-4.4825e-05,-6.915e-05,0.0,0 STARLINK-4504,1 53555U 22101AE  22251.91667824 -.00006915  00000-0 -44825-4 0  9994,2 53555  53.2150  55.1235 0001637  37.8531  27.2661 15.73229689  3195,6727.811,91.531,350.777,348.574,0.0
53555.0,STARLINK-4504,PAYLOAD,2022-09-09 14:00:01,15.73238853,0.000144,53.2153,51.8228,41.1258,201.8758,-0.00040757,-0.00057526,0.0,0 STARLINK-4504,1 53555U 22101AE  22252.58334491 -.00057526  00000-0 -40757-3 0  9992,2 53555  53.2153  51.8228 0001440  41.1258 201.8758 15.73238853  1300,6727.784000000002,91.531,350.61800000000005,348.681,0.0
53555.0,STARLINK-4504,PAYLOAD,2022-09-09 20:00:01,15.7317101,0.0001738,53.2156,50.5867,36.4729,183.2577,0.00024551,0.00033933,0.0,0 STARLINK-4504,1 53555U 22101AE  22252.83334491  .00033933  00000-0  24551-3 0  9998,2 53555  53.2156  50.5867 0001738  36.4729 183.2577 15.73171010  3336,6727.978,91.535,351.01199999999994,348.6740000000001,0.0
53555.0,STARLINK-4504,PAYLOAD,2022-09-09 22:00:00,15.73159977,0.0001732,53.2155,50.1739,35.0556,296.9069,0.00043966,0.00061431,0.0,0 STARLINK-4504,1 53555U 22101AE  22252.91667824  .00061431  00000-0  43966-3 0  9991,2 53555  53.2155  50.1739 0001732  35.0556 296.9069 15.73159977  1307,6728.009,91.536,351.04,348.709,0.0
53555.0,STARLINK-4504,PAYLOAD,2022-09-10 14:00:01,15.73220018,0.0001648,53.2158,46.8739,36.1354,113.6698,2.5435e-07,-5.85e-06,0.0,0 STARLINK-4504,1 53555U 22101AE  22253.58334491 -.00000585  00000-0  25435-6 0  9994,2 53555  53.2158  46.8739 0001648  36.1354 113.6698 15.73220018  1304,6727.8380000000025,91.532,350.81199999999984,348.594,0.0
53555.0,STARLINK-4504,PAYLOAD,2022-09-10 20:00:01,15.73223253,0.0001867,53.2158,45.6377,32.7902,93.7316,-0.0003291,-0.00046601,0.0,0 STARLINK-4504,1 53555U 22101AE  22253.83334491 -.00046601  00000-0 -32910-3 0  9995,2 53555  53.2158  45.6377 0001867  32.7902  93.7316 15.73223253  3494,6727.829000000002,91.532,350.95,348.43800000000016,0.0
53555.0,STARLINK-4504,PAYLOAD,2022-09-10 22:00:00,15.73221713,0.0001837,53.2153,45.2254,31.0008,207.7648,-0.00031113,-0.00044101,0.0,0 STARLINK-4504,1 53555U 22101AE  22253.91667824 -.00044101  00000-0 -31113-3 0  9990,2 53555  53.2153  45.2254 0001837  31.0008 207.7648 15.73221713  1307,6727.833000000001,91.532,350.934,348.462,0.0
53555.0,STARLINK-4504,PAYLOAD,2022-09-11 12:00:00,15.73205011,0.0001744,53.2174,42.3332,38.1904,266.1559,-7.1864e-06,-1.629e-05,0.0,0 STARLINK-4504,1 53555U 22101AE  22254.50001157 -.00001629  00000-0 -71864-5 0  9994,2 53555  53.2174  42.3332 0001744  38.1904 266.1559 15.73205011  3591,6727.880999999999,91.533,350.9190000000001,348.5730000000001,0.0
53555.0,STARLINK-4504,PAYLOAD,2022-09-11 14:00:01,15.73204607,0.0001789,53.2174,41.9215,37.9524,18.6273,-3.2816e-06,-1.081e-05,0.0,0 STARLINK-4504,1 53555U 22101AE  22254.58334491 -.00001081  00000-0 -32816-5 0  9998,2 53555  53.2174  41.9215 0001789  37.9524  18.6273 15.73204607  1300,6727.882,91.533,350.951,348.543,0.0
